NORAD_CAT_ID,OBJECT_NAME,OBJECT_TYPE,EPOCH,MEAN_MOTION,ECCENTRICITY,INCLINATION,RA_OF_ASC_NODE,ARG_OF_PERICENTER,MEAN_ANOMALY,BSTAR,MEAN_MOTION_DOT,MEAN_MOTION_DDOT,TLE_LINE0,TLE_LINE1,TLE_LINE2,SEMIMAJOR_AXIS,PERIOD,APOGEE,PERIGEE,DECAYED
53971.0,STARLINK-4639,PAYLOAD,2024-08-13 12:29:32,15.0876494,0.0001077,53.213,277.1394,79.9907,280.1206,-0.0011073,-0.00017831,0.0,0 STARLINK-4639,1 53971U 22125H   24226.52051459 -.00017831  00000-0 -11073-2 0  9990,2 53971  53.2130 277.1394 0001077  79.9907 280.1206 15.08764940102860,6918.11,95.442,540.72,539.23,0.0
53971.0,STARLINK-4639,PAYLOAD,2024-08-13 20:26:27,15.08800139,0.0001091,53.2155,275.656,73.2986,286.8125,-0.00038338,-6.377e-05,0.0,0 STARLINK-4639,1 53971U 22125H   24226.85170863 -.00006377  00000-0 -38338-3 0  9994,2 53971  53.2155 275.6560 0001091  73.2986 286.8125 15.08800139102915,6918.002,95.44,540.622,539.112,0.0
53971.0,STARLINK-4639,PAYLOAD,2024-08-14 02:47:59,15.08829724,0.0001466,53.2157,274.462,72.123,287.9922,0.00019582,2.829e-05,0.0,0 STARLINK-4639,1 53971U 22125H   24227.11665885  .00002829  00000-0  19582-3 0  9993,2 53971  53.2157 274.4620 0001466  72.1230 287.9922 15.08829724102959,6917.912,95.438,540.791,538.763,0.0
53971.0,STARLINK-4639,PAYLOAD,2024-08-14 10:44:54,15.0883838,0.0001487,53.2163,272.9751,63.7504,296.3641,0.00019211,2.771e-05,0.0,0 STARLINK-4639,1 53971U 22125H   24227.44785798  .00002771  00000-0  19211-3 0  9990,2 53971  53.2163 272.9751 0001487  63.7504 296.3641 15.08838380102935,6917.885,95.438,540.779,538.722,0.0
53971.0,STARLINK-4639,PAYLOAD,2024-08-14 20:17:13,15.08847376,0.0001412,53.2159,271.1906,72.402,287.7126,0.00021272,3.1e-05,0.0,0 STARLINK-4639,1 53971U 22125H   24227.84529321  .00003100  00000-0  21272-3 0  9999,2 53971  53.2159 271.1906 0001412  72.4020 287.7126 15.08847376102994,6917.858,95.437,540.7,538.746,0.0
53971.0,STARLINK-4639,PAYLOAD,2024-08-15 09:00:19,15.08836615,0.000126,53.2154,268.8122,66.3851,293.7273,0.0011442,0.00017967,0.0,0 STARLINK-4639,1 53971U 22125H   24228.37522637  .00017967  00000-0  11442-2 0  9994,2 53971  53.2154 268.8122 0001260  66.3851 293.7273 15.08836615103071,6917.891,95.438,540.627,538.884,0.0
53971.0,STARLINK-4639,PAYLOAD,2024-08-15 20:08:00,15.08855788,0.0001317,53.2144,266.7305,61.7314,298.3811,0.00056492,8.718e-05,0.0,0 STARLINK-4639,1 53971U 22125H   24228.83889560  .00008718  00000-0  56492-3 0  9995,2 53971  53.2144 266.7305 0001317  61.7314 298.3811 15.08855788103213,6917.832,95.437,540.608,538.786,0.0
53971.0,STARLINK-4639,PAYLOAD,2024-08-16 08:51:05,15.08855343,0.0001382,53.215,264.3512,61.4897,298.6234,5.7115e-05,6.22e-06,0.0,0 STARLINK-4639,1 53971U 22125H   24229.36880952  .00000622  00000-0  57115-4 0  9990,2 53971  53.2150 264.3512 0001382  61.4897 298.6234 15.08855343103229,6917.833,95.437,540.655,538.742,0.0
53971.0,STARLINK-4639,PAYLOAD,2024-08-17 11:52:38,15.08848255,0.0001398,53.2159,259.2943,74.8179,285.2968,-6.4727e-05,-1.318e-05,0.0,0 STARLINK-4639,1 53971U 22125H   24230.49488662 -.00001318  00000-0 -64727-4 0  9990,2 53971  53.2159 259.2943 0001398  74.8179 285.2968 15.08848255103463,6917.855,95.437,540.687,538.753,0.0
53971.0,STARLINK-4639,PAYLOAD,2024-08-18 05:21:52,15.08838083,0.0001319,53.2153,256.0229,70.8593,289.2542,-4.1564e-05,-9.49e-06,0.0,0 STARLINK-4639,1 53971U 22125H   24231.22352928 -.00000949  00000-0 -41564-4 0  9990,2 53971  53.2153 256.0229 0001319  70.8593 289.2542 15.08838083103503,6917.886,95.438,540.664,538.839,0.0
53971.0,STARLINK-4639,PAYLOAD,2024-08-18 11:43:25,15.08835084,0.0001323,53.2156,254.8337,78.9632,281.1509,-2.8884e-05,-7.47e-06,0.0,0 STARLINK-4639,1 53971U 22125H   24231.48849042 -.00000747  00000-0 -28884-4 0  9992,2 53971  53.2156 254.8337 0001323  78.9632 281.1509 15.08835084103614,6917.895,95.438,540.676,538.845,0.0
53971.0,STARLINK-4639,PAYLOAD,2024-08-19 11:34:12,15.08840277,0.0001395,53.2158,250.3741,68.874,291.2401,5.1036e-05,5.24e-06,0.0,0 STARLINK-4639,1 53971U 22125H   24232.48208621  .00000524  00000-0  51036-4 0  9991,2 53971  53.2158 250.3741 0001395  68.8740 291.2401 15.08840277103762,6917.88,95.438,540.71,538.779,0.0
53971.0,STARLINK-4639,PAYLOAD,2024-08-20 08:14:13,15.08837963,0.0001368,53.2154,246.5088,75.6407,284.4737,9.3169e-05,1.195e-05,0.0,0 STARLINK-4639,1 53971U 22125H   24233.34320772  .00001195  00000-0  93169-4 0  9997,2 53971  53.2154 246.5088 0001368  75.6407 284.4737 15.08837963103826,6917.887,95.438,540.698,538.805,0.0
53971.0,STARLINK-4639,PAYLOAD,2024-08-21 04:54:14,15.08839197,0.0001358,53.2152,242.6431,77.1572,282.9572,1.0816e-05,-1.16e-06,0.0,0 STARLINK-4639,1 53971U 22125H   24234.20433100 -.00000116  00000-0  10816-4 0  9994,2 53971  53.2152 242.6431 0001358  77.1572 282.9572 15.08839197104026,6917.883,95.438,540.687,538.808,0.0
53971.0,STARLINK-4639,PAYLOAD,2024-08-21 08:05:00,15.08841775,0.0001366,53.2151,242.0483,76.7873,283.3271,3.1475e-05,2.13e-06,0.0,0 STARLINK-4639,1 53971U 22125H   24234.33680869  .00000213  00000-0  31475-4 0  9995,2 53971  53.2151 242.0483 0001366  76.7873 283.3271 15.08841775103973,6917.875,95.437,540.685,538.795,0.0
